NORAD_CAT_ID,OBJECT_NAME,OBJECT_TYPE,EPOCH,MEAN_MOTION,ECCENTRICITY,INCLINATION,RA_OF_ASC_NODE,ARG_OF_PERICENTER,MEAN_ANOMALY,BSTAR,MEAN_MOTION_DOT,MEAN_MOTION_DDOT,TLE_LINE0,TLE_LINE1,TLE_LINE2,SEMIMAJOR_AXIS,PERIOD,APOGEE,PERIGEE,DECAYED
51727.0,STARLINK-3532,PAYLOAD,2024-01-10 03:04:55,15.08856753,0.0001434,53.2165,273.6015,95.8113,264.3042,-3.4964e-06,-3.44e-06,0.0,0 STARLINK-3532,1 51727U 22016P   24010.12842514 -.00000344  00000-0 -34964-5 0  9991,2 51727  53.2165 273.6015 0001434  95.8113 264.3042 15.08856753105284,6917.829,95.436,540.686,538.702,0.0
51727.0,STARLINK-3532,PAYLOAD,2024-01-11 02:55:43,15.08848481,0.0001621,53.2171,269.1363,108.0867,252.0301,6.0453e-06,-1.92e-06,0.0,0 STARLINK-3532,1 51727U 22016P   24011.12202896 -.00000192  00000-0  60453-5 0  9997,2 51727  53.2171 269.1363 0001621 108.0867 252.0301 15.08848481105436,6917.854,95.437,540.841,538.598,0.0
51727.0,STARLINK-3532,PAYLOAD,2024-01-11 20:24:58,15.08843627,0.0001616,53.2175,265.865,110.7154,249.4011,-3.1067e-05,-7.82e-06,0.0,0 STARLINK-3532,1 51727U 22016P   24011.85067383 -.00000782  00000-0 -31067-4 0  9991,2 51727  53.2175 265.8650 0001616 110.7154 249.4011 15.08843627105542,6917.869,95.437,540.852,538.616,0.0
51727.0,STARLINK-3532,PAYLOAD,2024-01-11 22:00:21,15.08843525,0.0001611,53.2165,265.569,123.4009,236.7137,-1.4785e-05,-5.23e-06,0.0,0 STARLINK-3532,1 51727U 22016P   24011.91691263 -.00000523  00000-0 -14785-4 0  9999,2 51727  53.2165 265.5690 0001611 123.4009 236.7137 15.08843525104495,6917.87,95.437,540.849,538.62,0.0
51727.0,STARLINK-3532,PAYLOAD,2024-01-12 02:46:30,15.08843938,0.0001562,53.2169,264.677,113.449,246.6667,-8.1073e-06,-4.17e-06,0.0,0 STARLINK-3532,1 51727U 22016P   24012.11563161 -.00000417  00000-0 -81073-5 0  9994,2 51727  53.2169 264.6770 0001562 113.4490 246.6667 15.08843938104526,6917.868,95.437,540.814,538.653,0.0
51727.0,STARLINK-3532,PAYLOAD,2024-01-12 20:15:45,15.08835721,0.0001454,53.2158,261.407,115.5874,244.5268,-4.941e-05,-1.074e-05,0.0,0 STARLINK-3532,1 51727U 22016P   24012.84428125 -.00001074  00000-0 -49410-4 0  9992,2 51727  53.2158 261.4070 0001454 115.5874 244.5268 15.08835721105695,6917.893,95.438,540.764,538.753,0.0
51727.0,STARLINK-3532,PAYLOAD,2024-01-12 21:51:08,15.08838169,0.000158,53.2167,261.1086,117.4073,242.708,-1.3406e-05,-5.01e-06,0.0,0 STARLINK-3532,1 51727U 22016P   24012.91051893 -.00000501  00000-0 -13406-4 0  9994,2 51727  53.2167 261.1086 0001580 117.4073 242.7080 15.08838169104646,6917.886,95.438,540.844,538.658,0.0
51727.0,STARLINK-3532,PAYLOAD,2024-01-12 23:26:31,15.08837155,0.0001517,53.2168,260.8118,103.2698,256.8463,2.0546e-05,3.9e-07,0.0,0 STARLINK-3532,1 51727U 22016P   24012.97675892  .00000039  00000-0  20546-4 0  9998,2 51727  53.2168 260.8118 0001517 103.2698 256.8463 15.08837155104651,6917.889,95.438,540.804,538.705,0.0
51727.0,STARLINK-3532,PAYLOAD,2024-01-13 23:17:18,15.08843057,0.0001264,53.2158,256.3543,100.3898,259.7237,7.8256e-05,9.58e-06,0.0,0 STARLINK-3532,1 51727U 22016P   24013.97035823  .00000958  00000-0  78256-4 0  9994,2 51727  53.2158 256.3543 0001264 100.3898 259.7237 15.08843057105864,6917.871,95.437,540.61,538.862,0.0
51727.0,STARLINK-3532,PAYLOAD,2024-01-14 19:57:20,15.08839982,0.0001279,53.2157,252.4881,99.5364,260.5773,0.00010921,1.451e-05,0.0,0 STARLINK-3532,1 51727U 22016P   24014.83148186  .00001451  00000-0  10921-3 0  9990,2 51727  53.2157 252.4881 0001279  99.5364 260.5773 15.08839982105999,6917.88,95.438,540.63,538.861,0.0
51727.0,STARLINK-3532,PAYLOAD,2024-01-14 21:32:42,15.0884441,0.000125,53.2154,252.1916,98.2216,261.8918,0.00011433,1.532e-05,0.0,0 STARLINK-3532,1 51727U 22016P   24014.89771942  .00001532  00000-0  11433-3 0  9997,2 51727  53.2154 252.1916 0001250  98.2216 261.8918 15.08844410104944,6917.867,95.437,540.597,538.867,0.0
51727.0,STARLINK-3532,PAYLOAD,2024-01-15 00:43:29,15.08835951,0.0001415,53.2148,251.5954,96.1129,264.0024,0.0005537,8.534e-05,0.0,0 STARLINK-3532,1 51727U 22016P   24015.03020326  .00008534  00000-0  55370-3 0  9994,2 51727  53.2148 251.5954 0001415  96.1129 264.0024 15.08835951104960,6917.893,95.438,540.737,538.779,0.0
51727.0,STARLINK-3532,PAYLOAD,2024-01-15 19:48:06,15.08841754,0.0001552,53.2151,248.0273,75.1855,284.9309,4.8993e-05,4.92e-06,0.0,0 STARLINK-3532,1 51727U 22016P   24015.82508069  .00000492  00000-0  48993-4 0  9995,2 51727  53.2151 248.0273 0001552  75.1855 284.9309 15.08841754105083,6917.875,95.437,540.814,538.666,0.0
51727.0,STARLINK-3532,PAYLOAD,2024-01-16 02:09:39,15.08842619,0.0001514,53.2147,246.8397,73.5468,286.569,7.7871e-05,9.52e-06,0.0,0 STARLINK-3532,1 51727U 22016P   24016.09004026  .00000952  00000-0  77871-4 0  9997,2 51727  53.2147 246.8397 0001514  73.5468 286.5690 15.08842619106185,6917.872,95.437,540.785,538.69,0.0
51727.0,STARLINK-3532,PAYLOAD,2024-01-16 21:14:17,15.0884211,0.0001706,53.2164,243.2708,69.7256,290.392,2.8881e-05,1.72e-06,0.0,0 STARLINK-3532,1 51727U 22016P   24016.88492386  .00000172  00000-0  28881-4 0  9995,2 51727  53.2164 243.2708 0001706  69.7256 290.3920 15.08842110105247,6917.874,95.437,540.919,538.559,0.0
51727.0,STARLINK-3532,PAYLOAD,2024-01-17 00:25:03,15.08822073,0.0001667,53.2168,242.675,82.4608,277.6574,0.00039594,6.016e-05,0.0,0 STARLINK-3532,1 51727U 22016P   24017.01740617  .00006016  00000-0  39594-3 0  9999,2 51727  53.2168 242.6750 0001667  82.4608 277.6574 15.08822073106329,6917.935,95.439,540.953,538.647,0.0
51727.0,STARLINK-3532,PAYLOAD,2024-01-17 19:29:39,15.08862406,0.0001404,53.2158,239.1077,76.0749,284.04,0.00023496,3.456e-05,0.0,0 STARLINK-3532,1 51727U 22016P   24017.81225934  .00003456  00000-0  23496-3 0  9996,2 51727  53.2158 239.1077 0001404  76.0749 284.0400 15.08862406106442,6917.812,95.436,540.648,538.706,0.0
51727.0,STARLINK-3532,PAYLOAD,2024-01-17 21:05:02,15.08863007,0.00014,53.2157,238.8105,74.6518,285.4629,0.00024765,3.658e-05,0.0,0 STARLINK-3532,1 51727U 22016P   24017.87849886  .00003658  00000-0  24765-3 0  9994,2 51727  53.2157 238.8105 0001400  74.6518 285.4629 15.08863007105392,6917.81,95.436,540.644,538.707,0.0
51727.0,STARLINK-3532,PAYLOAD,2024-01-18 19:20:27,15.08838129,0.0001188,53.2148,234.6457,118.512,241.5992,-5.161e-05,-1.109e-05,0.0,0 STARLINK-3532,1 51727U 22016P   24018.80587473 -.00001109  00000-0 -51610-4 0  9990,2 51727  53.2148 234.6457 0001188 118.5120 241.5992 15.08838129106592,6917.886,95.438,540.573,538.929,0.0
51727.0,STARLINK-3532,PAYLOAD,2024-01-18 20:55:50,15.08835906,9.43e-05,53.2142,234.3503,108.6897,251.4198,-9.137e-05,-1.741e-05,0.0,0 STARLINK-3532,1 51727U 22016P   24018.87211622 -.00001741  00000-0 -91370-4 0  9996,2 51727  53.2142 234.3503 0000943 108.6897 251.4198 15.08835906105546,6917.893,95.438,540.41,539.106,0.0
51727.0,STARLINK-3532,PAYLOAD,2024-01-19 14:25:05,15.08841724,9.15e-05,53.2143,231.0797,96.7397,263.37,-0.00046943,-7.751e-05,0.0,0 STARLINK-3532,1 51727U 22016P   24019.60075721 -.00007751  00000-0 -46943-3 0  9998,2 51727  53.2143 231.0797 0000915  96.7397 263.3700 15.08841724105655,6917.875,95.437,540.373,539.107,0.0
51727.0,STARLINK-3532,PAYLOAD,2024-01-19 20:46:38,15.08809716,9.52e-05,53.2151,229.8882,124.4458,235.6624,0.00038203,5.792e-05,0.0,0 STARLINK-3532,1 51727U 22016P   24019.86572443  .00005792  00000-0  38203-3 0  9990,2 51727  53.2151 229.8882 0000952 124.4458 235.6624 15.08809716105698,6917.973,95.439,540.497,539.179,0.0
51727.0,STARLINK-3532,PAYLOAD,2024-01-20 14:15:53,15.08828146,9.75e-05,53.2148,226.6178,101.4072,258.7029,0.00018347,2.632e-05,0.0,0 STARLINK-3532,1 51727U 22016P   24020.59436535  .00002632  00000-0  18347-3 0  9990,2 51727  53.2148 226.6178 0000975 101.4072 258.7029 15.08828146105805,6917.917,95.438,540.456,539.107,0.0
51727.0,STARLINK-3532,PAYLOAD,2024-01-20 19:02:02,15.08830765,9.92e-05,53.2149,225.7254,98.399,261.7114,0.0002099,3.054e-05,0.0,0 STARLINK-3532,1 51727U 22016P   24020.79308596  .00003054  00000-0  20990-3 0  9993,2 51727  53.2149 225.7254 0000992  98.3990 261.7114 15.08830765106892,6917.909,95.438,540.46,539.087,0.0
51727.0,STARLINK-3532,PAYLOAD,2024-01-21 22:03:36,15.08837018,0.000101,53.214,220.6699,97.1999,262.9108,9.0511e-05,1.153e-05,0.0,0 STARLINK-3532,1 51727U 22016P   24021.91916903  .00001153  00000-0  90511-4 0  9990,2 51727  53.2140 220.6699 0001010  97.1999 262.9108 15.08837018106005,6917.89,95.438,540.453,539.056,0.0
51727.0,STARLINK-3532,PAYLOAD,2024-01-21 23:38:59,15.08837084,0.0001007,53.2139,220.3726,96.2493,263.8614,8.768e-05,1.108e-05,0.0,0 STARLINK-3532,1 51727U 22016P   24021.98540917  .00001108  00000-0  87680-4 0  9998,2 51727  53.2139 220.3726 0001007  96.2493 263.8614 15.08837084107079,6917.889,95.438,540.451,539.058,0.0
51727.0,STARLINK-3532,PAYLOAD,2024-01-22 20:19:00,15.08841437,9.92e-05,53.215,216.5067,94.2282,265.8824,9.9688e-05,1.299e-05,0.0,0 STARLINK-3532,1 51727U 22016P   24022.84652946  .00001299  00000-0  99688-4 0  9992,2 51727  53.2150 216.5067 0000992  94.2282 265.8824 15.08841437106142,6917.876,95.437,540.427,539.055,0.0
51727.0,STARLINK-3532,PAYLOAD,2024-01-23 02:40:32,15.08839813,0.0001032,53.2148,215.3167,88.6822,271.4288,0.00010113,1.322e-05,0.0,0 STARLINK-3532,1 51727U 22016P   24023.11149057  .00001322  00000-0  10113-3 0  9999,2 51727  53.2148 215.3167 0001032  88.6822 271.4288 15.08839813107244,6917.881,95.438,540.46,539.032,0.0
51727.0,STARLINK-3532,PAYLOAD,2024-01-23 04:15:55,15.08840433,0.0001035,53.2149,215.0193,88.3169,271.7942,0.00010601,1.4e-05,0.0,0 STARLINK-3532,1 51727U 22016P   24023.17773084  .00001400  00000-0  10601-3 0  9997,2 51727  53.2149 215.0193 0001035  88.3169 271.7942 15.08840433106198,6917.879,95.438,540.46,539.028,0.0
51727.0,STARLINK-3532,PAYLOAD,2024-01-23 21:45:09,15.0884628,0.0001071,53.2151,211.7482,85.9038,274.2077,0.00014356,1.998e-05,0.0,0 STARLINK-3532,1 51727U 22016P   24023.90636538  .00001998  00000-0  14356-3 0  9993,2 51727  53.2151 211.7482 0001071  85.9038 274.2077 15.08846280106309,6917.861,95.437,540.467,538.985,0.0
